GLOBALSTAR M001 [-]     
1 25162U 98008A   24034.28792774 -.00000052  00000+0  34443-3 0  9998
2 25162  52.0065 348.1788 0001436 291.7386 216.0424 12.38175722181787
GLOBALSTAR M004 [-]     
1 25163U 98008B   24034.72568238 -.00000083  00000+0  11699-3 0  9996
2 25163  51.9994 137.8371 0002368 251.6746 273.2315 12.63349435198557
GLOBALSTAR M002 [-]     
1 25164U 98008C   24034.77211665 -.00000087  00000+0 -20518-3 0  9996
2 25164  52.0026  52.3915 0001098 302.8534  57.2180 11.61496872126033
GLOBALSTAR M003 [-]     
1 25165U 98008D   24034.63274519  .00000061  00000+0  16097-2 0  9995
2 25165  51.9810 112.1416 0007697  11.8211 136.2103 12.11974997172640
GLOBALSTAR M014 [-]     
1 25306U 98023A   24035.13428329 -.00000060  00000+0  32228-3 0  9990
2 25306  51.9878 345.2008 0000727 133.3120 239.7128 11.65464355132971
GLOBALSTAR M006 [-]     
1 25307U 98023B   24034.35283116 -.00000098  00000+0 -46204-3 0  9998
2 25307  51.9969  20.9674 0003662 292.9460 215.9600 11.58156235158919
GLOBALSTAR M015 [-]     
1 25308U 98023C   24034.57576292 -.00000125  00000+0 -11795-2 0  9990
2 25308  51.9821  95.9874 0012136 263.6704 267.7194 11.48857454136653
GLOBALSTAR M008 [-]     
1 25309U 98023D   24034.65764025 -.00000069  00000+0  21323-3 0  9998
2 25309  51.9940 206.2752 0002394 176.9388 263.2662 12.36036083176073
